[Satellite]
VERSION=1.1
NAME=COSMOS 2460 (732)
NICKNAME=COSMOS 2460 (732)
TLE1=1 36402U 10007C   22341.70511704 -.00000062  00000+0  00000+0 0  9997
TLE2=2 36402  65.9376 357.6827 0002285 254.7766 246.2882  2.13106401 99384
STATUS=0
